start=new Date('2021-12-03T00:00:00.000Z').valueOf();
sats=[{"BSTAR":"-0.00019361000000","TLE_LINE1":"1 49176U 21082AY  21336.91667824 -.00023285  00000-0 -19361-3 0  9993","GP_ID":"190949789","EPOCH":"2021-12-02T22:00:00.999936","SEMIMAJOR_AXIS":"6737.680","MEAN_MOTION_DOT":"-0.00023285","REV_AT_EPOCH":"1262","SITE":"AFWTR","OBJECT_TYPE":"PAYLOAD","ECCENTRICITY":"0.00035170","CLASSIFICATION_TYPE":"U","MEAN_ANOMALY":"224.7536","DECAY_DATE":null,"PERIOD":"91.733","COUNTRY_CODE":"US","LAUNCH_DATE":"2021-09-14","MEAN_ELEMENT_THEORY":"SGP4","PERIAPSIS":"357.175","ARG_OF_PERICENTER":"274.7456","ELEMENT_SET_NO":"999","RCS_SIZE":"LARGE","TLE_LINE2":"2 49176  69.9984 262.4873 0003517 274.7456 224.7536 15.69774386 12623","REF_FRAME":"TEME","NORAD_CAT_ID":"49176","OBJECT_NAME":"STARLINK-3069","RA_OF_ASC_NODE":"262.4873","MEAN_MOTION":"15.69774386","OBJECT_ID":"2021-082AY","APOAPSIS":"361.914","EPHEMERIS_TYPE":"0","TIME_SYSTEM":"UTC","MEAN_MOTION_DDOT":"0.0000000000000","INCLINATION":"69.9984","FILE":"3231008","CENTER_NAME":"EARTH"},{"RCS_SIZE":"LARGE","TLE_LINE2":"2 49177  69.9997 263.4299 0003417 276.3573 133.7701 15.69709118  3688","PERIAPSIS":"357.429","ARG_OF_PERICENTER":"276.3573","ELEMENT_SET_NO":"999","MEAN_ELEMENT_THEORY":"SGP4","LAUNCH_DATE":"2021-09-14","OBJECT_ID":"2021-082AZ","RA_OF_ASC_NODE":"263.4299","MEAN_MOTION":"15.69709118","REF_FRAME":"TEME","NORAD_CAT_ID":"49177","OBJECT_NAME":"STARLINK-3103","EPHEMERIS_TYPE":"0","APOAPSIS":"362.034","CENTER_NAME":"EARTH","FILE":"3230859","INCLINATION":"69.9997","MEAN_MOTION_DDOT":"0.0000000000000","TIME_SYSTEM":"UTC","TLE_LINE1":"1 49177U 21082AZ  21336.58334491  .00001512  00000-0  14461-4 0  9992","GP_ID":"190946430","BSTAR":"0.00001446100000","OBJECT_TYPE":"PAYLOAD","EPOCH":"2021-12-02T14:00:01.000224","SEMIMAJOR_AXIS":"6737.866","MEAN_MOTION_DOT":"0.00001512","REV_AT_EPOCH":"368","SITE":"AFWTR","CLASSIFICATION_TYPE":"U","ECCENTRICITY":"0.00034170","PERIOD":"91.737","COUNTRY_CODE":"US","DECAY_DATE":null,"MEAN_ANOMALY":"133.7701"},{"APOAPSIS":"461.077","EPHEMERIS_TYPE":"0","FILE":"3230859","CENTER_NAME":"EARTH","TIME_SYSTEM":"UTC","INCLINATION":"70.0000","MEAN_MOTION_DDOT":"0.0000000000000","PERIAPSIS":"456.417","ELEMENT_SET_NO":"999","ARG_OF_PERICENTER":"271.3238","RCS_SIZE":"LARGE","TLE_LINE2":"2 49178  70.0000 265.0835 0003408 271.3238  98.8053 15.35732862  3657","LAUNCH_DATE":"2021-09-14","MEAN_ELEMENT_THEORY":"SGP4","OBJECT_ID":"2021-082BA","REF_FRAME":"TEME","OBJECT_NAME":"STARLINK-3086","NORAD_CAT_ID":"49178","MEAN_MOTION":"15.35732862","RA_OF_ASC_NODE":"265.0835","CLASSIFICATION_TYPE":"U","ECCENTRICITY":"0.00034080","DECAY_DATE":null,"PERIOD":"93.766","COUNTRY_CODE":"US","MEAN_ANOMALY":"98.8053","TLE_LINE1":"1 49178U 21082BA  21336.58334491 -.00660010  00000-0 -20363-1 0  9994","GP_ID":"190945670","BSTAR":"-0.02036300000000","OBJECT_TYPE":"PAYLOAD","SEMIMAJOR_AXIS":"6836.882","MEAN_MOTION_DOT":"-0.00660010","EPOCH":"2021-12-02T14:00:01.000224","REV_AT_EPOCH":"365","SITE":"AFWTR"},{"CLASSIFICATION_TYPE":"U","ECCENTRICITY":"0.00035210","DECAY_DATE":null,"PERIOD":"91.736","COUNTRY_CODE":"US","MEAN_ANOMALY":"138.3957","TLE_LINE1":"1 49179U 21082BB  21336.58334491  .00016753  00000-0  14197-3 0  9992","GP_ID":"190945822","BSTAR":"0.00014197000000","OBJECT_TYPE":"PAYLOAD","SEMIMAJOR_AXIS":"6737.820","EPOCH":"2021-12-02T14:00:01.000224","MEAN_MOTION_DOT":"0.00016753","SITE":"AFWTR","REV_AT_EPOCH":"368","APOAPSIS":"362.058","EPHEMERIS_TYPE":"0","FILE":"3230859","CENTER_NAME":"EARTH","TIME_SYSTEM":"UTC","MEAN_MOTION_DDOT":"0.0000000000000","INCLINATION":"69.9992","PERIAPSIS":"357.313","ARG_OF_PERICENTER":"273.7851","ELEMENT_SET_NO":"999","RCS_SIZE":"LARGE","TLE_LINE2":"2 49179  69.9992 263.4358 0003521 273.7851 138.3957 15.69725204  3685","MEAN_ELEMENT_THEORY":"SGP4","LAUNCH_DATE":"2021-09-14","OBJECT_ID":"2021-082BB","REF_FRAME":"TEME","OBJECT_NAME":"STARLINK-3043","NORAD_CAT_ID":"49179","MEAN_MOTION":"15.69725204","RA_OF_ASC_NODE":"263.4358"},{"BSTAR":"-0.00065657000000","GP_ID":"190949801","TLE_LINE1":"1 49180U 21082BC  21336.91667824 -.00077941  00000-0 -65657-3 0  9995","SITE":"AFWTR","REV_AT_EPOCH":"1379","SEMIMAJOR_AXIS":"6737.690","MEAN_MOTION_DOT":"-0.00077941","EPOCH":"2021-12-02T22:00:00.999936","OBJECT_TYPE":"PAYLOAD","CLASSIFICATION_TYPE":"U","ECCENTRICITY":"0.00035600","MEAN_ANOMALY":"226.3336","COUNTRY_CODE":"US","PERIOD":"91.733","DECAY_DATE":null,"LAUNCH_DATE":"2021-09-14","MEAN_ELEMENT_THEORY":"SGP4","TLE_LINE2":"2 49180  70.0001 262.4832 0003560 275.3485 226.3336 15.69770811 13797","RCS_SIZE":"LARGE","ELEMENT_SET_NO":"999","ARG_OF_PERICENTER":"275.3485","PERIAPSIS":"357.156","RA_OF_ASC_NODE":"262.4832","MEAN_MOTION":"15.69770811","OBJECT_NAME":"STARLINK-3050","NORAD_CAT_ID":"49180","REF_FRAME":"TEME","OBJECT_ID":"2021-082BC","EPHEMERIS_TYPE":"0","APOAPSIS":"361.953","MEAN_MOTION_DDOT":"0.0000000000000","INCLINATION":"70.0001","TIME_SYSTEM":"UTC","CENTER_NAME":"EARTH","FILE":"3231008"},{"CLASSIFICATION_TYPE":"U","ECCENTRICITY":"0.00034070","DECAY_DATE":null,"COUNTRY_CODE":"US","PERIOD":"93.723","MEAN_ANOMALY":"166.2885","GP_ID":"190946735","TLE_LINE1":"1 49181U 21082BD  21336.58334491 -.00658724  00000-0 -19861-1 0  9998","BSTAR":"-0.01986100000000","OBJECT_TYPE":"PAYLOAD","REV_AT_EPOCH":"365","SITE":"AFWTR","SEMIMAJOR_AXIS":"6834.775","MEAN_MOTION_DOT":"-0.00658724","EPOCH":"2021-12-02T14:00:01.000224","APOAPSIS":"458.969","EPHEMERIS_TYPE":"0","FILE":"3230859","CENTER_NAME":"EARTH","TIME_SYSTEM":"UTC","MEAN_MOTION_DDOT":"0.0000000000000","INCLINATION":"70.0001","ELEMENT_SET_NO":"999","ARG_OF_PERICENTER":"271.5555","PERIAPSIS":"454.311","TLE_LINE2":"2 49181  70.0001 265.0626 0003407 271.5555 166.2885 15.36442904  3652","RCS_SIZE":"LARGE","MEAN_ELEMENT_THEORY":"SGP4","LAUNCH_DATE":"2021-09-14","OBJECT_ID":"2021-082BD","NORAD_CAT_ID":"49181","OBJECT_NAME":"STARLINK-3059","REF_FRAME":"TEME","MEAN_MOTION":"15.36442904","RA_OF_ASC_NODE":"265.0626"},{"OBJECT_ID":"2021-104A","REF_FRAME":"TEME","NORAD_CAT_ID":"49408","OBJECT_NAME":"STARLINK-3151","RA_OF_ASC_NODE":"38.7755","MEAN_MOTION":"15.73238883","PERIAPSIS":"348.392","ARG_OF_PERICENTER":"17.0472","ELEMENT_SET_NO":"999","RCS_SIZE":"LARGE","TLE_LINE2":"2 49408  53.2191  38.7755 0001869  17.0472 221.1742 15.73238883  3682","LAUNCH_DATE":"2021-11-13","MEAN_ELEMENT_THEORY":"SGP4","FILE":"3230859","CENTER_NAME":"EARTH","TIME_SYSTEM":"UTC","MEAN_MOTION_DDOT":"0.0000000000000","INCLINATION":"53.2191","APOAPSIS":"350.907","EPHEMERIS_TYPE":"0","OBJECT_TYPE":"PAYLOAD","SEMIMAJOR_AXIS":"6727.784","EPOCH":"2021-12-02T14:00:01.000224","MEAN_MOTION_DOT":"-0.00021045","REV_AT_EPOCH":"368","SITE":"AFETR","TLE_LINE1":"1 49408U 21104A   21336.58334491 -.00021045  00000-0 -14564-3 0  9992","GP_ID":"190946761","BSTAR":"-0.00014564000000","DECAY_DATE":null,"PERIOD":"91.531","COUNTRY_CODE":"US","MEAN_ANOMALY":"221.1742","ECCENTRICITY":"0.00018690","CLASSIFICATION_TYPE":"U"},{"FILE":"3231094","CENTER_NAME":"EARTH","TIME_SYSTEM":"UTC","INCLINATION":"53.2193","MEAN_MOTION_DDOT":"0.0000000000000","APOAPSIS":"351.027","EPHEMERIS_TYPE":"0","OBJECT_ID":"2021-104B","OBJECT_NAME":"STARLINK-3075","NORAD_CAT_ID":"49409","REF_FRAME":"TEME","RA_OF_ASC_NODE":"37.1349","MEAN_MOTION":"15.73169428","ARG_OF_PERICENTER":"25.4066","ELEMENT_SET_NO":"999","PERIAPSIS":"348.667","TLE_LINE2":"2 49409  53.2193  37.1349 0001754  25.4066 297.1515 15.73169428  4334","RCS_SIZE":"LARGE","MEAN_ELEMENT_THEORY":"SGP4","LAUNCH_DATE":"2021-11-13","DECAY_DATE":null,"COUNTRY_CODE":"US","PERIOD":"91.535","MEAN_ANOMALY":"297.1515","ECCENTRICITY":"0.00017540","CLASSIFICATION_TYPE":"U","OBJECT_TYPE":"PAYLOAD","REV_AT_EPOCH":"433","SITE":"AFETR","SEMIMAJOR_AXIS":"6727.982","MEAN_MOTION_DOT":"0.00017892","EPOCH":"2021-12-02T22:00:00.999936","GP_ID":"190951845","TLE_LINE1":"1 49409U 21104B   21336.91667824  .00017892  00000-0  13180-3 0  9995","BSTAR":"0.00013180000000"},{"ECCENTRICITY":"0.00021350","CLASSIFICATION_TYPE":"U","COUNTRY_CODE":"US","PERIOD":"91.537","DECAY_DATE":null,"MEAN_ANOMALY":"204.2200","GP_ID":"190946153","TLE_LINE1":"1 49410U 21104C   21336.58334491  .00033307  00000-0  24141-3 0  9999","BSTAR":"0.00024141000000","OBJECT_TYPE":"PAYLOAD","SITE":"AFETR","REV_AT_EPOCH":"368","SEMIMAJOR_AXIS":"6728.070","MEAN_MOTION_DOT":"0.00033307","EPOCH":"2021-12-02T14:00:01.000224","EPHEMERIS_TYPE":"0","APOAPSIS":"351.371","CENTER_NAME":"EARTH","FILE":"3230859","INCLINATION":"53.2187","MEAN_MOTION_DDOT":"0.0000000000000","TIME_SYSTEM":"UTC","TLE_LINE2":"2 49410  53.2187  38.7797 0002135  31.2886 204.2200 15.73138780  3686","RCS_SIZE":"LARGE","ELEMENT_SET_NO":"999","ARG_OF_PERICENTER":"31.2886","PERIAPSIS":"348.498","LAUNCH_DATE":"2021-11-13","MEAN_ELEMENT_THEORY":"SGP4","OBJECT_ID":"2021-104C","MEAN_MOTION":"15.73138780","RA_OF_ASC_NODE":"38.7797","NORAD_CAT_ID":"49410","OBJECT_NAME":"STARLINK-3147","REF_FRAME":"TEME"},{"RA_OF_ASC_NODE":"38.7389","MEAN_MOTION":"15.75262032","NORAD_CAT_ID":"49411","OBJECT_NAME":"STARLINK-3162","REF_FRAME":"TEME","OBJECT_ID":"2021-104D","LAUNCH_DATE":"2021-11-13","MEAN_ELEMENT_THEORY":"SGP4","TLE_LINE2":"2 49411  53.2187  38.7389 0002313  35.8201 220.4788 15.75262032  3684","RCS_SIZE":"LARGE","ELEMENT_SET_NO":"999","ARG_OF_PERICENTER":"35.8201","PERIAPSIS":"342.333","MEAN_MOTION_DDOT":"0.0000000000000","INCLINATION":"53.2187","TIME_SYSTEM":"UTC","CENTER_NAME":"EARTH","FILE":"3230859","EPHEMERIS_TYPE":"0","APOAPSIS":"345.442","REV_AT_EPOCH":"368","SITE":"AFETR","SEMIMAJOR_AXIS":"6722.023","EPOCH":"2021-12-02T14:00:01.000224","MEAN_MOTION_DOT":"-0.00195093","OBJECT_TYPE":"PAYLOAD","BSTAR":"-0.00129650000000","GP_ID":"190946609","TLE_LINE1":"1 49411U 21104D   21336.58334491 -.00195093  00000-0 -12965-2 0  9993","MEAN_ANOMALY":"220.4788","COUNTRY_CODE":"US","PERIOD":"91.413","DECAY_DATE":null,"ECCENTRICITY":"0.00023130","CLASSIFICATION_TYPE":"U"}];
